start=new Date('2022-12-04T00:00:00.000Z').valueOf();
sats=[{"MEAN_ELEMENT_THEORY":"SGP4","MEAN_MOTION_DDOT":"0.0000000000000","OBJECT_TYPE":"PAYLOAD","EPOCH":"2022-12-03T10:07:40.084608","CENTER_NAME":"EARTH","SEMIMAJOR_AXIS":"6925.368","INCLINATION":"53.0555","OBJECT_ID":"2021-009Y","TIME_SYSTEM":"UTC","RA_OF_ASC_NODE":"313.9178","EPHEMERIS_TYPE":"0","ARG_OF_PERICENTER":"64.6674","MEAN_ANOMALY":"295.4476","ELEMENT_SET_NO":"999","CLASSIFICATION_TYPE":"U","RCS_SIZE":"LARGE","COUNTRY_CODE":"US","TLE_LINE2":"2 47570  53.0555 313.9178 0001561  64.6674 295.4476 15.06393776101372","FILE":"3680253","LAUNCH_DATE":"2021-02-04","BSTAR":"0.00004170200000","DECAY_DATE":null,"ECCENTRICITY":"0.00015610","REV_AT_EPOCH":"10137","APOAPSIS":"548.314","GP_ID":"219447276","NORAD_CAT_ID":"47570","SITE":"AFETR","TLE_LINE1":"1 47570U 21009Y   22337.42199172  .00000340  00000-0  41702-4 0  9992","MEAN_MOTION":"15.06393776","OBJECT_NAME":"STARLINK-1969","PERIAPSIS":"546.152","MEAN_MOTION_DOT":"0.00000340","REF_FRAME":"TEME","PERIOD":"95.593"},{"CLASSIFICATION_TYPE":"U","RCS_SIZE":"LARGE","COUNTRY_CODE":"US","APOAPSIS":"548.305","REV_AT_EPOCH":"10127","TLE_LINE2":"2 47571  53.0546 322.6902 0001544  59.2851 300.8290 15.06392858101277","FILE":"3680595","BSTAR":"-0.00001354100000","LAUNCH_DATE":"2021-02-04","ECCENTRICITY":"0.00015440","DECAY_DATE":null,"GP_ID":"219477806","TLE_LINE1":"1 47571U 21009Z   22337.69751926 -.00000483  00000-0 -13541-4 0  9993","NORAD_CAT_ID":"47571","SITE":"AFETR","MEAN_MOTION":"15.06392858","OBJECT_NAME":"STARLINK-1970","MEAN_MOTION_DOT":"-0.00000483","PERIAPSIS":"546.166","REF_FRAME":"TEME","PERIOD":"95.593","MEAN_ELEMENT_THEORY":"SGP4","MEAN_MOTION_DDOT":"0.0000000000000","OBJECT_TYPE":"PAYLOAD","EPOCH":"2022-12-03T16:44:25.664064","SEMIMAJOR_AXIS":"6925.370","CENTER_NAME":"EARTH","RA_OF_ASC_NODE":"322.6902","INCLINATION":"53.0546","TIME_SYSTEM":"UTC","OBJECT_ID":"2021-009Z","ARG_OF_PERICENTER":"59.2851","EPHEMERIS_TYPE":"0","MEAN_ANOMALY":"300.8290","ELEMENT_SET_NO":"999"},{"PERIAPSIS":"546.303","MEAN_MOTION_DOT":"0.00000948","PERIOD":"95.593","REF_FRAME":"TEME","MEAN_MOTION":"15.06393888","OBJECT_NAME":"STARLINK-1971","GP_ID":"219478551","SITE":"AFETR","NORAD_CAT_ID":"47572","TLE_LINE1":"1 47572U 21009AA  22337.67909031  .00000948  00000-0  82565-4 0  9990","COUNTRY_CODE":"US","RCS_SIZE":"LARGE","CLASSIFICATION_TYPE":"U","DECAY_DATE":null,"ECCENTRICITY":"0.00013420","BSTAR":"0.00008256500000","TLE_LINE2":"2 47572  53.0560 322.7699 0001342  99.1587 260.9553 15.06393888101275","FILE":"3680595","LAUNCH_DATE":"2021-02-04","REV_AT_EPOCH":"10127","APOAPSIS":"548.162","MEAN_ANOMALY":"260.9553","ELEMENT_SET_NO":"999","EPHEMERIS_TYPE":"0","ARG_OF_PERICENTER":"99.1587","CENTER_NAME":"EARTH","SEMIMAJOR_AXIS":"6925.367","TIME_SYSTEM":"UTC","OBJECT_ID":"2021-009AA","INCLINATION":"53.0560","RA_OF_ASC_NODE":"322.7699","MEAN_ELEMENT_THEORY":"SGP4","EPOCH":"2022-12-03T16:17:53.402784","OBJECT_TYPE":"PAYLOAD","MEAN_MOTION_DDOT":"0.0000000000000"},{"OBJECT_NAME":"STARLINK-1975","MEAN_MOTION":"15.06399077","REF_FRAME":"TEME","PERIOD":"95.592","MEAN_MOTION_DOT":"-0.00000849","PERIAPSIS":"546.109","REV_AT_EPOCH":"10126","APOAPSIS":"548.324","TLE_LINE2":"2 47573  53.0542 322.8550 0001599  58.7437 301.3708 15.06399077101269","FILE":"3680595","BSTAR":"-0.00003811400000","LAUNCH_DATE":"2021-02-04","DECAY_DATE":null,"ECCENTRICITY":"0.00015990","CLASSIFICATION_TYPE":"U","RCS_SIZE":"LARGE","COUNTRY_CODE":"US","TLE_LINE1":"1 47573U 21009AB  22337.65697217 -.00000849  00000-0 -38114-4 0  9992","NORAD_CAT_ID":"47573","SITE":"AFETR","GP_ID":"219478807","EPHEMERIS_TYPE":"0","ARG_OF_PERICENTER":"58.7437","ELEMENT_SET_NO":"999","MEAN_ANOMALY":"301.3708","MEAN_MOTION_DDOT":"0.0000000000000","EPOCH":"2022-12-03T15:46:02.395488","OBJECT_TYPE":"PAYLOAD","MEAN_ELEMENT_THEORY":"SGP4","RA_OF_ASC_NODE":"322.8550","INCLINATION":"53.0542","OBJECT_ID":"2021-009AB","TIME_SYSTEM":"UTC","SEMIMAJOR_AXIS":"6925.351","CENTER_NAME":"EARTH"},{"GP_ID":"219479053","NORAD_CAT_ID":"47574","SITE":"AFETR","TLE_LINE1":"1 47574U 21009AC  22337.73898644 -.00001123  00000-0 -56475-4 0  9995","RCS_SIZE":"LARGE","CLASSIFICATION_TYPE":"U","COUNTRY_CODE":"US","BSTAR":"-0.00005647500000","TLE_LINE2":"2 47574  53.0564 352.4980 0001729  66.4399 293.6772 15.06395342100857","FILE":"3680595","LAUNCH_DATE":"2021-02-04","DECAY_DATE":null,"ECCENTRICITY":"0.00017290","REV_AT_EPOCH":"10085","APOAPSIS":"548.425","PERIAPSIS":"546.030","MEAN_MOTION_DOT":"-0.00001123","REF_FRAME":"TEME","PERIOD":"95.592","MEAN_MOTION":"15.06395342","OBJECT_NAME":"STARLINK-1976","CENTER_NAME":"EARTH","SEMIMAJOR_AXIS":"6925.363","INCLINATION":"53.0564","OBJECT_ID":"2021-009AC","TIME_SYSTEM":"UTC","RA_OF_ASC_NODE":"352.4980","MEAN_ELEMENT_THEORY":"SGP4","MEAN_MOTION_DDOT":"0.0000000000000","EPOCH":"2022-12-03T17:44:08.428416","OBJECT_TYPE":"PAYLOAD","MEAN_ANOMALY":"293.6772","ELEMENT_SET_NO":"999","ARG_OF_PERICENTER":"66.4399","EPHEMERIS_TYPE":"0"},{"REV_AT_EPOCH":"10082","APOAPSIS":"548.444","BSTAR":"0.00002601800000","TLE_LINE2":"2 47575  53.0561 353.4441 0001728  67.2404 292.8768 15.06389101100822","FILE":"3680253","LAUNCH_DATE":"2021-02-04","ECCENTRICITY":"0.00017280","DECAY_DATE":null,"RCS_SIZE":"LARGE","CLASSIFICATION_TYPE":"U","COUNTRY_CODE":"US","TLE_LINE1":"1 47575U 21009AD  22337.52889108  .00000106  00000-0  26018-4 0  9996","NORAD_CAT_ID":"47575","SITE":"AFETR","GP_ID":"219447526","OBJECT_NAME":"STARLINK-1977","MEAN_MOTION":"15.06389101","REF_FRAME":"TEME","PERIOD":"95.593","MEAN_MOTION_DOT":"0.00000106","PERIAPSIS":"546.050","MEAN_MOTION_DDOT":"0.0000000000000","OBJECT_TYPE":"PAYLOAD","EPOCH":"2022-12-03T12:41:36.189312","MEAN_ELEMENT_THEORY":"SGP4","RA_OF_ASC_NODE":"353.4441","INCLINATION":"53.0561","TIME_SYSTEM":"UTC","OBJECT_ID":"2021-009AD","SEMIMAJOR_AXIS":"6925.382","CENTER_NAME":"EARTH","ARG_OF_PERICENTER":"67.2404","EPHEMERIS_TYPE":"0","ELEMENT_SET_NO":"999","MEAN_ANOMALY":"292.8768"},{"MEAN_MOTION":"15.06400330","OBJECT_NAME":"STARLINK-1978","MEAN_MOTION_DOT":"0.00001153","PERIAPSIS":"545.965","REF_FRAME":"TEME","PERIOD":"95.592","CLASSIFICATION_TYPE":"U","RCS_SIZE":"LARGE","COUNTRY_CODE":"US","REV_AT_EPOCH":"10140","APOAPSIS":"548.460","FILE":"3680595","TLE_LINE2":"2 47576  53.0547 313.0042 0001802  65.7221 294.3956 15.06400330101408","BSTAR":"0.00009628700000","LAUNCH_DATE":"2021-02-04","DECAY_DATE":null,"ECCENTRICITY":"0.00018020","GP_ID":"219478053","TLE_LINE1":"1 47576U 21009AE  22337.62840419  .00001153  00000-0  96287-4 0  9998","NORAD_CAT_ID":"47576","SITE":"AFETR","EPHEMERIS_TYPE":"0","ARG_OF_PERICENTER":"65.7221","MEAN_ANOMALY":"294.3956","ELEMENT_SET_NO":"999","MEAN_ELEMENT_THEORY":"SGP4","MEAN_MOTION_DDOT":"0.0000000000000","EPOCH":"2022-12-03T15:04:54.122016","OBJECT_TYPE":"PAYLOAD","SEMIMAJOR_AXIS":"6925.348","CENTER_NAME":"EARTH","RA_OF_ASC_NODE":"313.0042","INCLINATION":"53.0547","OBJECT_ID":"2021-009AE","TIME_SYSTEM":"UTC"},{"OBJECT_TYPE":"PAYLOAD","EPOCH":"2022-12-03T16:03:58.103136","MEAN_MOTION_DDOT":"0.0000000000000","MEAN_ELEMENT_THEORY":"SGP4","RA_OF_ASC_NODE":"327.8168","TIME_SYSTEM":"UTC","OBJECT_ID":"2021-009AF","INCLINATION":"53.0564","CENTER_NAME":"EARTH","SEMIMAJOR_AXIS":"6925.368","EPHEMERIS_TYPE":"0","ARG_OF_PERICENTER":"62.5341","ELEMENT_SET_NO":"999","MEAN_ANOMALY":"297.5815","APOAPSIS":"548.367","REV_AT_EPOCH":"10120","ECCENTRICITY":"0.00016380","DECAY_DATE":null,"TLE_LINE2":"2 47577  53.0564 327.8168 0001638  62.5341 297.5815 15.06393652101200","FILE":"3680595","BSTAR":"-0.00004060100000","LAUNCH_DATE":"2021-02-04","COUNTRY_CODE":"US","CLASSIFICATION_TYPE":"U","RCS_SIZE":"LARGE","TLE_LINE1":"1 47577U 21009AF  22337.66942249 -.00000886  00000-0 -40601-4 0  9990","SITE":"AFETR","NORAD_CAT_ID":"47577","GP_ID":"219479307","OBJECT_NAME":"STARLINK-1979","MEAN_MOTION":"15.06393652","PERIOD":"95.593","REF_FRAME":"TEME","MEAN_MOTION_DOT":"-0.00000886","PERIAPSIS":"546.099"},{"INCLINATION":"53.0559","OBJECT_ID":"2021-009AG","TIME_SYSTEM":"UTC","RA_OF_ASC_NODE":"332.5470","CENTER_NAME":"EARTH","SEMIMAJOR_AXIS":"6925.376","MEAN_MOTION_DDOT":"0.0000000000000","OBJECT_TYPE":"PAYLOAD","EPOCH":"2022-12-03T17:30:51.737472","MEAN_ELEMENT_THEORY":"SGP4","ELEMENT_SET_NO":"999","MEAN_ANOMALY":"294.9682","EPHEMERIS_TYPE":"0","ARG_OF_PERICENTER":"65.1473","NORAD_CAT_ID":"47578","SITE":"AFETR","TLE_LINE1":"1 47578U 21009AG  22337.72976548 -.00001098  00000-0 -54855-4 0  9999","GP_ID":"219479553","TLE_LINE2":"2 47578  53.0559 332.5470 0001589  65.1473 294.9682 15.06391098101131","FILE":"3680595","LAUNCH_DATE":"2021-02-04","BSTAR":"-0.00005485500000","ECCENTRICITY":"0.00015890","DECAY_DATE":null,"REV_AT_EPOCH":"10113","APOAPSIS":"548.341","CLASSIFICATION_TYPE":"U","RCS_SIZE":"LARGE","COUNTRY_CODE":"US","REF_FRAME":"TEME","PERIOD":"95.593","PERIAPSIS":"546.140","MEAN_MOTION_DOT":"-0.00001098","OBJECT_NAME":"STARLINK-1980","MEAN_MOTION":"15.06391098"},{"MEAN_ANOMALY":"309.7047","ELEMENT_SET_NO":"999","EPHEMERIS_TYPE":"0","ARG_OF_PERICENTER":"50.4112","SEMIMAJOR_AXIS":"6925.382","CENTER_NAME":"EARTH","RA_OF_ASC_NODE":"323.8146","OBJECT_ID":"2021-009AH","TIME_SYSTEM":"UTC","INCLINATION":"53.0567","MEAN_ELEMENT_THEORY":"SGP4","EPOCH":"2022-12-03T10:43:31.254528","OBJECT_TYPE":"PAYLOAD","MEAN_MOTION_DDOT":"0.0000000000000","MEAN_MOTION_DOT":"0.00002634","PERIAPSIS":"545.909","PERIOD":"95.593","REF_FRAME":"TEME","MEAN_MOTION":"15.06388980","OBJECT_NAME":"STARLINK-1981","GP_ID":"219448025","TLE_LINE1":"1 47579U 21009AH  22337.44688952  .00002634  00000-0  19570-3 0  9997","SITE":"AFETR","NORAD_CAT_ID":"47579","COUNTRY_CODE":"US","RCS_SIZE":"LARGE","CLASSIFICATION_TYPE":"U","REV_AT_EPOCH":"10123","APOAPSIS":"548.586","DECAY_DATE":null,"ECCENTRICITY":"0.00019330","FILE":"3680253","TLE_LINE2":"2 47579  53.0567 323.8146 0001933  50.4112 309.7047 15.06388980101231","LAUNCH_DATE":"2021-02-04","BSTAR":"0.00019570000000"}];
